IRIDIUM 171             
1 43929U 19002H   25067.87507960  .00000114  00000+0  33703-4 0  9996
2 43929  86.4049 188.2763 0001635  92.4746 267.6637 14.34217888322260
IRIDIUM 170             
1 43930U 19002J   25067.85828070  .00002067  00000+0  32380-3 0  9992
2 43930  86.6164 188.0564 0002271  82.6068 277.5407 14.72258648330797
IRIDIUM 167             
1 43931U 19002K   25067.86874094  .00000516  00000+0  17734-3 0  9994
2 43931  86.4039 188.0428 0002064  84.4075 275.7357 14.34215538322260
IRIDIUM 181             
1 56726U 23068S   25067.90624434  .00000297  00000+0  82134-4 0  9996
2 56726  86.4457 251.1140 0001722  80.4518 279.6878 14.43310485 95323
IRIDIUM 177             
1 56727U 23068T   25067.81792705  .00000528  00000+0  65981-4 0  9992
2 56727  86.2025 189.7254 0002049  85.9654 274.1801 14.80220127 97523
IRIDIUM 174             
1 56728U 23068U   25067.88009591  .00002831  00000+0  36904-3 0  9995
2 56728  86.2034 189.8204 0001658 100.5349 259.6059 14.80234787 97531
IRIDIUM 178             
1 56729U 23068V   25067.87466713  .00003156  00000+0  41181-3 0  9992
2 56729  86.5787 219.7826 0001373 110.4428 249.6941 14.80239882 97535
IRIDIUM 179             
1 56730U 23068W   25067.86922854  .00001882  00000+0  24425-3 0  9992
2 56730  86.6782 227.2455 0002012  93.1188 267.0264 14.80223745 97539
